NORAD_CAT_ID,OBJECT_NAME,OBJECT_TYPE,EPOCH,MEAN_MOTION,ECCENTRICITY,INCLINATION,RA_OF_ASC_NODE,ARG_OF_PERICENTER,MEAN_ANOMALY,BSTAR,MEAN_MOTION_DOT,MEAN_MOTION_DDOT,TLE_LINE0,TLE_LINE1,TLE_LINE2,SEMIMAJOR_AXIS,PERIOD,APOGEE,PERIGEE,DECAYED
53850.0,STARLINK-4767,PAYLOAD,2024-01-10 19:32:28,15.0886926,0.0001467,53.2163,235.1403,78.6151,281.5006,0.00025119,3.715e-05,0.0,0 STARLINK-4767,1 53850U 22114AJ  24010.81421784  .00003715  00000-0  25119-3 0  9990,2 53850  53.2163 235.1403 0001467  78.6151 281.5006 15.08869260 73341,6917.791,95.436,540.671,538.641,0.0
53850.0,STARLINK-4767,PAYLOAD,2024-01-11 00:18:40,15.08835996,0.0001501,53.2168,234.2452,76.0373,284.0786,-3.7059e-05,-8.78e-06,0.0,0 STARLINK-4767,1 53850U 22114AJ  24011.01296333 -.00000878  00000-0 -37059-4 0  9999,2 53850  53.2168 234.2452 0001501  76.0373 284.0786 15.08835996 73372,6917.893,95.438,540.796,538.719,0.0
53850.0,STARLINK-4767,PAYLOAD,2024-01-11 20:58:40,15.08836933,0.0001454,53.2164,230.3795,90.5433,269.5726,-6.857e-05,-1.379e-05,0.0,0 STARLINK-4767,1 53850U 22114AJ  24011.87408416 -.00001379  00000-0 -68570-4 0  9999,2 53850  53.2164 230.3795 0001454  90.5433 269.5726 15.08836933 74049,6917.89,95.438,540.761,538.749,0.0
53850.0,STARLINK-4767,PAYLOAD,2024-01-12 00:09:27,15.08838301,0.0001383,53.2163,229.7836,93.7258,266.3893,-7.7007e-05,-1.513e-05,0.0,0 STARLINK-4767,1 53850U 22114AJ  24012.00656313 -.00001513  00000-0 -77007-4 0  9991,2 53850  53.2163 229.7836 0001383  93.7258 266.3893 15.08838301 74060,6917.886,95.438,540.707,538.794,0.0
53850.0,STARLINK-4767,PAYLOAD,2024-01-12 19:14:05,15.08819365,0.0001432,53.2164,226.2143,96.8533,263.2622,0.00010156,1.328e-05,0.0,0 STARLINK-4767,1 53850U 22114AJ  24012.80145213  .00001328  00000-0  10156-3 0  9994,2 53850  53.2164 226.2143 0001432  96.8533 263.2622 15.08819365 73647,6917.943,95.439,540.799,538.818,0.0
53850.0,STARLINK-4767,PAYLOAD,2024-01-12 20:49:28,15.08819371,0.0001419,53.2164,225.9169,95.6815,264.4339,9.7678e-05,1.266e-05,0.0,0 STARLINK-4767,1 53850U 22114AJ  24012.86769308  .00001266  00000-0  97678-4 0  9993,2 53850  53.2164 225.9169 0001419  95.6815 264.4339 15.08819371 74192,6917.943,95.439,540.79,538.827,0.0
53850.0,STARLINK-4767,PAYLOAD,2024-01-13 19:04:52,15.08833425,0.0001409,53.2162,221.753,101.0922,259.0229,0.0001734,2.472e-05,0.0,0 STARLINK-4767,1 53850U 22114AJ  24013.79505266  .00002472  00000-0  17340-3 0  9994,2 53850  53.2162 221.7530 0001409 101.0922 259.0229 15.08833425 73795,6917.9,95.438,540.74,538.791,0.0
53850.0,STARLINK-4767,PAYLOAD,2024-01-13 23:51:02,15.08833933,0.0001463,53.2152,220.8621,103.3464,256.7691,0.00019161,2.762e-05,0.0,0 STARLINK-4767,1 53850U 22114AJ  24013.99377616  .00002762  00000-0  19161-3 0  9997,2 53850  53.2152 220.8621 0001463 103.3464 256.7691 15.08833933 74366,6917.899,95.438,540.776,538.752,0.0
53850.0,STARLINK-4767,PAYLOAD,2024-01-14 22:06:25,15.0884798,0.0001335,53.215,216.7008,91.3163,268.7982,0.00028389,4.234e-05,0.0,0 STARLINK-4767,1 53850U 22114AJ  24014.92113116  .00004234  00000-0  28389-3 0  9992,2 53850  53.2150 216.7008 0001335  91.3163 268.7982 15.08847980 74506,6917.856,95.437,540.645,538.797,0.0
53850.0,STARLINK-4767,PAYLOAD,2024-01-15 18:46:26,15.08842017,0.0001553,53.2164,212.8373,99.4463,260.6705,2.183e-05,5.9e-07,0.0,0 STARLINK-4767,1 53850U 22114AJ  24015.78225237  .00000059  00000-0  21830-4 0  9991,2 53850  53.2164 212.8373 0001553  99.4463 260.6705 15.08842017 74091,6917.874,95.437,540.814,538.665,0.0
53850.0,STARLINK-4767,PAYLOAD,2024-01-15 21:57:12,15.08843211,0.0001562,53.2165,212.2426,99.4415,260.6754,2.9812e-05,1.87e-06,0.0,0 STARLINK-4767,1 53850U 22114AJ  24015.91473121  .00000187  00000-0  29812-4 0  9993,2 53850  53.2165 212.2426 0001562  99.4415 260.6754 15.08843211 74655,6917.871,95.437,540.816,538.655,0.0
53850.0,STARLINK-4767,PAYLOAD,2024-01-16 12:15:41,15.08838371,0.0001548,53.2167,209.5657,92.2263,267.8907,1.975e-05,2.6e-07,0.0,0 STARLINK-4767,1 53850U 22114AJ  24016.51089880  .00000026  00000-0  19750-4 0  9997,2 53850  53.2167 209.5657 0001548  92.2263 267.8907 15.08838371 74209,6917.885,95.438,540.821,538.679,0.0
53850.0,STARLINK-4767,PAYLOAD,2024-01-16 13:51:04,15.08833761,0.0001591,53.2167,209.268,100.4947,259.6224,4.9276e-05,4.96e-06,0.0,0 STARLINK-4767,1 53850U 22114AJ  24016.57713978  .00000496  00000-0  49276-4 0  9992,2 53850  53.2167 209.2680 0001591 100.4947 259.6224 15.08833761 74750,6917.899,95.438,540.865,538.664,0.0
53850.0,STARLINK-4767,PAYLOAD,2024-01-16 20:12:37,15.08839469,0.0001435,53.2165,208.0786,95.9053,264.2103,-3.4929e-05,-8.44e-06,0.0,0 STARLINK-4767,1 53850U 22114AJ  24016.84209895 -.00000844  00000-0 -34929-4 0  9998,2 53850  53.2165 208.0786 0001435  95.9053 264.2103 15.08839469 74798,6917.882,95.438,540.74,538.754,0.0
53850.0,STARLINK-4767,PAYLOAD,2024-01-16 21:48:00,15.08839564,0.0001415,53.2163,207.7811,88.7825,271.3329,4.4082e-06,-2.18e-06,0.0,0 STARLINK-4767,1 53850U 22114AJ  24016.90833771 -.00000218  00000-0  44082-5 0  9997,2 53850  53.2163 207.7811 0001415  88.7825 271.3329 15.08839564 74803,6917.882,95.438,540.726,538.768,0.0
53850.0,STARLINK-4767,PAYLOAD,2024-01-17 20:03:23,15.08843836,0.0001272,53.2154,203.6176,86.1777,273.9361,9.3655e-05,1.203e-05,0.0,0 STARLINK-4767,1 53850U 22114AJ  24017.83569355  .00001203  00000-0  93655-4 0  9997,2 53850  53.2154 203.6176 0001272  86.1777 273.9361 15.08843836 74408,6917.869,95.437,540.614,538.854,0.0
53850.0,STARLINK-4767,PAYLOAD,2024-01-18 11:57:15,15.08840633,0.0001241,53.2154,200.6438,95.5799,264.5335,0.00012071,1.634e-05,0.0,0 STARLINK-4767,1 53850U 22114AJ  24018.49809448  .00001634  00000-0  12071-3 0  9990,2 53850  53.2154 200.6438 0001241  95.5799 264.5335 15.08840633 75040,6917.878,95.438,540.602,538.885,0.0
53850.0,STARLINK-4767,PAYLOAD,2024-01-18 21:29:33,15.08848121,0.0001299,53.2156,198.859,94.7602,265.3538,0.0001284,1.757e-05,0.0,0 STARLINK-4767,1 53850U 22114AJ  24018.89552932  .00001757  00000-0  12840-3 0  9997,2 53850  53.2156 198.8590 0001299  94.7602 265.3538 15.08848121 75107,6917.856,95.437,540.619,538.822,0.0
53850.0,STARLINK-4767,PAYLOAD,2024-01-19 11:48:02,15.08843929,0.0001411,53.2166,196.1822,99.2735,260.8417,3.4588e-05,2.63e-06,0.0,0 STARLINK-4767,1 53850U 22114AJ  24019.49169462  .00000263  00000-0  34588-4 0  9991,2 53850  53.2166 196.1822 0001411  99.2735 260.8417 15.08843929 74656,6917.868,95.437,540.709,538.757,0.0
53850.0,STARLINK-4767,PAYLOAD,2024-01-19 14:58:48,15.08835932,0.0001121,53.2165,195.5887,105.4691,254.6425,0.00013424,1.849e-05,0.0,0 STARLINK-4767,1 53850U 22114AJ  24019.62417453  .00001849  00000-0  13424-3 0  9998,2 53850  53.2165 195.5887 0001121 105.4691 254.6425 15.08835932 75216,6917.893,95.438,540.533,538.982,0.0
53850.0,STARLINK-4767,PAYLOAD,2024-01-19 18:09:34,15.08834399,0.0001108,53.2168,194.9942,103.8052,256.3063,0.00017389,2.48e-05,0.0,0 STARLINK-4767,1 53850U 22114AJ  24019.75665431  .00002480  00000-0  17389-3 0  9999,2 53850  53.2168 194.9942 0001108 103.8052 256.3063 15.08834399 75237,6917.898,95.438,540.529,538.996,0.0
53850.0,STARLINK-4767,PAYLOAD,2024-01-20 14:49:35,15.08838946,0.0001668,53.2179,191.1291,114.3285,245.7881,2.2841e-05,7.5e-07,0.0,0 STARLINK-4767,1 53850U 22114AJ  24020.61777605  .00000075  00000-0  22841-4 0  9991,2 53850  53.2179 191.1291 0001668 114.3285 245.7881 15.08838946 75367,6917.884,95.438,540.903,538.595,0.0
53850.0,STARLINK-4767,PAYLOAD,2024-01-20 16:24:58,15.08839252,0.0001665,53.218,190.8318,113.7762,246.3405,2.2648e-05,7.2e-07,0.0,0 STARLINK-4767,1 53850U 22114AJ  24020.68401577  .00000072  00000-0  22648-4 0  9992,2 53850  53.2180 190.8318 0001665 113.7762 246.3405 15.08839252 74836,6917.883,95.438,540.9,538.596,0.0
53850.0,STARLINK-4767,PAYLOAD,2024-01-21 17:51:08,15.08843247,0.0001484,53.2177,186.0751,103.0733,257.0425,9.3164e-05,1.195e-05,0.0,0 STARLINK-4767,1 53850U 22114AJ  24021.74385235  .00001195  00000-0  93164-4 0  9990,2 53850  53.2177 186.0751 0001484 103.0733 257.0425 15.08843247 74996,6917.87,95.437,540.762,538.709,0.0
53850.0,STARLINK-4767,PAYLOAD,2024-01-21 21:01:54,15.08845878,0.0001366,53.2168,185.4771,98.2561,261.8586,8.9721e-05,1.14e-05,0.0,0 STARLINK-4767,1 53850U 22114AJ  24021.87632988  .00001140  00000-0  89721-4 0  9998,2 53850  53.2168 185.4771 0001366  98.2561 261.8586 15.08845878 75550,6917.862,95.437,540.672,538.782,0.0
53850.0,STARLINK-4767,PAYLOAD,2024-01-22 11:20:24,15.08829928,9.53e-05,53.2172,182.8037,80.343,279.767,7.02e-06,-1.76e-06,0.0,0 STARLINK-4767,1 53850U 22114AJ  24022.47250455 -.00000176  00000-0  70200-5 0  9992,2 53850  53.2172 182.8037 0000953  80.3430 279.7670 15.08829928 75100,6917.911,95.438,540.435,539.117,0.0
53850.0,STARLINK-4767,PAYLOAD,2024-01-22 17:41:56,15.088393,0.0001148,53.2158,181.6117,85.9101,274.2023,7.2376e-05,8.64e-06,0.0,0 STARLINK-4767,1 53850U 22114AJ  24022.73745754  .00000864  00000-0  72376-4 0  9990,2 53850  53.2158 181.6117 0001148  85.9101 274.2023 15.08839300 75144,6917.883,95.438,540.542,538.953,0.0
53850.0,STARLINK-4767,PAYLOAD,2024-01-23 15:57:20,15.088412,0.00013,53.2157,177.4485,105.9287,254.1849,3.8177e-05,3.2e-06,0.0,0 STARLINK-4767,1 53850U 22114AJ  24023.66481857  .00000320  00000-0  38177-4 0  9992,2 53850  53.2157 177.4485 0001300 105.9287 254.1849 15.08841200 75822,6917.877,95.437,540.641,538.842,0.0
53850.0,STARLINK-4767,PAYLOAD,2024-01-24 14:12:44,15.08837812,0.0001215,53.216,173.285,95.5292,264.5839,5.0237e-05,5.12e-06,0.0,0 STARLINK-4767,1 53850U 22114AJ  24024.59218296  .00000512  00000-0  50237-4 0  9994,2 53850  53.2160 173.2850 0001215  95.5292 264.5839 15.08837812 75964,6917.887,95.438,540.593,538.912,0.0
53850.0,STARLINK-4767,PAYLOAD,2024-01-24 17:23:30,15.08840661,0.0001225,53.2161,172.6903,93.0802,267.0331,7.0329e-05,8.32e-06,0.0,0 STARLINK-4767,1 53850U 22114AJ  24024.72466082  .00000832  00000-0  70329-4 0  9996,2 53850  53.2161 172.6903 0001225  93.0802 267.0331 15.08840661 75442,6917.878,95.438,540.591,538.896,0.0
